NORAD_CAT_ID,OBJECT_NAME,OBJECT_TYPE,EPOCH,MEAN_MOTION,ECCENTRICITY,INCLINATION,RA_OF_ASC_NODE,ARG_OF_PERICENTER,MEAN_ANOMALY,BSTAR,MEAN_MOTION_DOT,MEAN_MOTION_DDOT,TLE_LINE0,TLE_LINE1,TLE_LINE2,SEMIMAJOR_AXIS,PERIOD,APOGEE,PERIGEE,DECAYED
52668.0,STARLINK-4067,PAYLOAD,2022-09-03 14:00:01,15.088184,0.0002403,53.218,154.2134,63.6099,231.6969,0.0028416,0.00045201,0.0,0 STARLINK-4067,1 52668U 22053N   22246.58334491  .00045201  00000-0  28416-2 0  9997,2 52668  53.2180 154.2134 0002403  63.6099 231.6969 15.08818400  1305,6917.946,95.439,541.474,538.149,0.0
52668.0,STARLINK-4067,PAYLOAD,2022-09-03 20:00:01,15.08861275,0.000247,53.2182,153.0917,64.8672,149.1268,-0.00057471,-9.429e-05,0.0,0 STARLINK-4067,1 52668U 22053N   22246.83334491 -.00009429  00000-0 -57471-3 0  9993,2 52668  53.2182 153.0917 0002470  64.8672 149.1268 15.08861275 17374,6917.815,95.436,541.389,537.972,0.0
52668.0,STARLINK-4067,PAYLOAD,2022-09-03 22:00:00,15.08864282,0.0002494,53.218,152.7181,63.1337,243.7638,-0.0012127,-0.0001955,0.0,0 STARLINK-4067,1 52668U 22053N   22246.91667824 -.00019550  00000-0 -12127-2 0  9995,2 52668  53.2180 152.7181 0002494  63.1337 243.7638 15.08864282  1306,6917.806,95.436,541.396,537.946,0.0
52668.0,STARLINK-4067,PAYLOAD,2022-09-04 14:00:01,15.08832627,0.0002289,53.218,149.7243,62.9621,267.2235,0.0012599,0.00019816,0.0,0 STARLINK-4067,1 52668U 22053N   22247.58335648  .00019816  00000-0  12599-2 0  9991,2 52668  53.2180 149.7243 0002289  62.9621 267.2235 15.08832627  1308,6917.903,95.438,541.351,538.184,0.0
52668.0,STARLINK-4067,PAYLOAD,2022-09-04 20:00:01,15.08849677,0.0002331,53.2182,148.6028,63.1753,185.6419,-0.0010639,-0.00017186,0.0,0 STARLINK-4067,1 52668U 22053N   22247.83334491 -.00017186  00000-0 -10639-2 0  9997,2 52668  53.2182 148.6028 0002331  63.1753 185.6419 15.08849677  1306,6917.851,95.437,541.328,538.1030000000002,0.0
52668.0,STARLINK-4067,PAYLOAD,2022-09-05 04:00:00,15.08824802,0.0002394,53.2184,147.1078,57.4272,202.997,0.0035569,0.00056754,0.0,0 STARLINK-4067,1 52668U 22053N   22248.16667824  .00056754  00000-0  35569-2 0  9994,2 52668  53.2184 147.1078 0002394  57.4272 202.9970 15.08824802 17572,6917.927,95.439,541.448,538.136,0.0
52668.0,STARLINK-4067,PAYLOAD,2022-09-05 12:00:00,15.08841019,0.0002209,53.2187,145.6097,60.5702,211.4607,-5.2575e-06,-3.72e-06,0.0,0 STARLINK-4067,1 52668U 22053N   22248.50001157 -.00000372  00000-0 -52575-5 0  9999,2 52668  53.2187 145.6097 0002209  60.5702 211.4607 15.08841019 17624,6917.877,95.437,541.27,538.214,0.0
52668.0,STARLINK-4067,PAYLOAD,2022-09-05 14:00:01,15.08817227,0.0002157,53.2185,145.2353,62.0866,302.8523,0.0029704,0.00047274,0.0,0 STARLINK-4067,1 52668U 22053N   22248.58334491  .00047274  00000-0  29704-2 0  9992,2 52668  53.2185 145.2353 0002157  62.0866 302.8523 15.08817227  1307,6917.95,95.439,541.307,538.323,0.0
52668.0,STARLINK-4067,PAYLOAD,2022-09-05 22:00:00,15.08850239,0.0002218999999999,53.2188,143.7404,58.6444,317.8779,-0.0030822,-0.00049023,0.0,0 STARLINK-4067,1 52668U 22053N   22248.91667824 -.00049023  00000-0 -30822-2 0  9997,2 52668  53.2188 143.7404 0002219  58.6444 317.8779 15.08850239  1301,6917.849,95.437,541.249,538.179,0.0
52668.0,STARLINK-4067,PAYLOAD,2022-09-06 04:00:00,15.08806343,0.0002229,53.2189,142.6189,54.129,241.0885,0.00092757,0.00014492,0.0,0 STARLINK-4067,1 52668U 22053N   22249.16667824  .00014492  00000-0  92757-3 0  9991,2 52668  53.2189 142.6189 0002229  54.1290 241.0885 15.08806343 17727,6917.983,95.44,541.39,538.306,0.0
52668.0,STARLINK-4067,PAYLOAD,2022-09-06 14:00:01,15.08786356,0.0002056,53.2192,140.7466,59.5038,340.1738,0.0036341,0.0005794,0.0,0 STARLINK-4067,1 52668U 22053N   22249.58334491  .00057940  00000-0  36341-2 0  9999,2 52668  53.2192 140.7466 0002056  59.5038 340.1738 15.08786356  1301,6918.044,95.441,541.332,538.487,0.0
52668.0,STARLINK-4067,PAYLOAD,2022-09-06 22:00:00,15.08832899,0.0002206,53.2188,139.2519,57.4217,353.8098,-0.0010280999999999,-0.00016611,0.0,0 STARLINK-4067,1 52668U 22053N   22249.91667824 -.00016611  00000-0 -10281-2 0  9992,2 52668  53.2188 139.2519 0002206  57.4217 353.8098 15.08832899  1305,6917.901999999999,95.438,541.293,538.241,0.0
52668.0,STARLINK-4067,PAYLOAD,2022-09-07 14:00:01,15.0881791,0.0002094,53.2179,136.2581,61.2915,13.1139,0.0034549999999999,0.00055096,0.0,0 STARLINK-4067,1 52668U 22053N   22250.58334491  .00055096  00000-0  34550-2 0  9991,2 52668  53.2179 136.2581 0002094  61.2915  13.1139 15.08817910 17940,6917.948,95.439,541.262,538.364,0.0
52668.0,STARLINK-4067,PAYLOAD,2022-09-07 22:00:00,15.08870217,0.0002214,53.2182,134.7634,58.042,27.9529,-0.0027941999999999,-0.00044522,0.0,0 STARLINK-4067,1 52668U 22053N   22250.91667824 -.00044522  00000-0 -27942-2 0  9998,2 52668  53.2182 134.7634 0002214  58.0420  27.9529 15.08870217  1303,6917.788000000001,95.436,541.185,538.121,0.0
52668.0,STARLINK-4067,PAYLOAD,2022-09-08 06:00:00,15.0884647,0.0002158,53.218,133.267,55.15600000000001,42.4515,-0.00047113,-7.780000000000001e-05,0.0,0 STARLINK-4067,1 52668U 22053N   22251.25001157 -.00007780  00000-0 -47113-3 0  9995,2 52668  53.2180 133.2670 0002158  55.1560  42.4515 15.08846470 18045,6917.861,95.437,541.2180000000002,538.2330000000002,0.0
52668.0,STARLINK-4067,PAYLOAD,2022-09-08 14:00:01,15.08823466,0.0001992,53.2182,131.7693,61.4232,47.7853,0.0028201,0.0004486,0.0,0 STARLINK-4067,1 52668U 22053N   22251.58334491  .00044860  00000-0  28201-2 0  9995,2 52668  53.2182 131.7693 0001992  61.4232  47.7853 15.08823466  1300,6917.931,95.439,541.174,538.418,0.0
52668.0,STARLINK-4067,PAYLOAD,2022-09-08 22:00:00,15.0885715,0.0002072,53.2181,130.2746,57.5467,63.2604,-0.0030031,-0.00047789,0.0,0 STARLINK-4067,1 52668U 22053N   22251.91667824 -.00047789  00000-0 -30031-2 0  9990,2 52668  53.2181 130.2746 0002072  57.5467  63.2604 15.08857150  1302,6917.828,95.436,541.126,538.26,0.0
52668.0,STARLINK-4067,PAYLOAD,2022-09-09 14:00:01,15.0883335,0.0001881,53.2177,127.2804,62.0263,81.9727,0.0018741,0.00029659,0.0,0 STARLINK-4067,1 52668U 22053N   22252.58334491  .00029659  00000-0  18741-2 0  9993,2 52668  53.2177 127.2804 0001881  62.0263  81.9727 15.08833350  1309,6917.901,95.438,541.067,538.464,0.0
52668.0,STARLINK-4067,PAYLOAD,2022-09-09 22:00:00,15.08843433,0.0001952,53.2174,125.7857,57.2524,98.3513,-0.0015586999999999,-0.00025012,0.0,0 STARLINK-4067,1 52668U 22053N   22252.91667824 -.00025012  00000-0 -15587-2 0  9995,2 52668  53.2174 125.7857 0001952  57.2524  98.3513 15.08843433  1300,6917.87,95.437,541.085,538.385,0.0
52668.0,STARLINK-4067,PAYLOAD,2022-09-10 04:00:00,15.0882402,0.0001940999999999,53.217,124.6636,53.7961,20.4961,0.0017055,0.00026948,0.0,0 STARLINK-4067,1 52668U 22053N   22253.16667824  .00026948  00000-0  17055-2 0  9992,2 52668  53.2170 124.6636 0001941  53.7961  20.4961 15.08824020 18338,6917.929,95.439,541.137,538.451,0.0
52668.0,STARLINK-4067,PAYLOAD,2022-09-10 14:00:01,15.08839499,0.0001786,53.2169,122.7914,62.4475,116.3305,-0.00064958,-0.00010611,0.0,0 STARLINK-4067,1 52668U 22053N   22253.58334491 -.00010611  00000-0 -64958-3 0  9996,2 52668  53.2169 122.7914 0001786  62.4475 116.3305 15.08839499  1300,6917.882,95.438,540.982,538.511,0.0
52668.0,STARLINK-4067,PAYLOAD,2022-09-10 20:00:01,15.08836162,0.0001821999999999,53.2168,121.6704,58.0825,39.3907,-0.0020127,-0.00032175,0.0,0 STARLINK-4067,1 52668U 22053N   22253.83334491 -.00032175  00000-0 -20127-2 0  9992,2 52668  53.2168 121.6704 0001822  58.0825  39.3907 15.08836162 18433,6917.892,95.438,541.018,538.497,0.0
52668.0,STARLINK-4067,PAYLOAD,2022-09-10 22:00:00,15.08819775,0.0001867,53.2166,121.2967,55.984,134.3895,-0.00013055,-2.364e-05,0.0,0 STARLINK-4067,1 52668U 22053N   22253.91667824 -.00002364  00000-0 -13055-3 0  9990,2 52668  53.2166 121.2967 0001867  55.9840 134.3895 15.08819775  1301,6917.941999999999,95.439,541.099,538.516,0.0
52668.0,STARLINK-4067,PAYLOAD,2022-09-11 06:00:00,15.08844176,0.0001846,53.2163,119.7997,55.2498,146.692,-0.0012132,-0.00019547,0.0,0 STARLINK-4067,1 52668U 22053N   22254.25001157 -.00019547  00000-0 -12132-2 0  9994,2 52668  53.2163 119.7997 0001846  55.2498 146.6920 15.08844176 18498,6917.868,95.437,541.01,538.456,0.0
52668.0,STARLINK-4067,PAYLOAD,2022-09-11 14:00:01,15.08827925,0.0001771,53.2163,118.3021,62.1451,151.3896,0.0024300999999999,0.00038587,0.0,0 STARLINK-4067,1 52668U 22053N   22254.58334491  .00038587  00000-0  24301-2 0  9994,2 52668  53.2163 118.3021 0001771  62.1451 151.3896 15.08827925  1304,6917.917,95.438,541.007,538.557,0.0
52668.0,STARLINK-4067,PAYLOAD,2022-09-11 20:00:01,15.0885939,0.0001857,53.2162,117.1811,57.7614,74.4676,-0.0013318,-0.00021433,0.0,0 STARLINK-4067,1 52668U 22053N   22254.83334491 -.00021433  00000-0 -13318-2 0  9992,2 52668  53.2162 117.1811 0001857  57.7614  74.4676 15.08859390 18583,6917.821,95.436,540.971,538.401,0.0
52668.0,STARLINK-4067,PAYLOAD,2022-09-11 22:00:00,15.0885351,0.0001896999999999,53.2162,116.8074,56.0646,169.0687,-0.00083308,-0.00013527,0.0,0 STARLINK-4067,1 52668U 22053N   22254.91667824 -.00013527  00000-0 -83308-3 0  9992,2 52668  53.2162 116.8074 0001897  56.0646 169.0687 15.08853510  1304,6917.839,95.437,541.016,538.3919999999998,0.0
52668.0,STARLINK-4067,PAYLOAD,2022-09-12 14:00:01,15.08830606,0.0001723,53.2161,113.8125,60.2411,188.0881,0.0024134,0.00038321,0.0,0 STARLINK-4067,1 52668U 22053N   22255.58334491  .00038321  00000-0  24134-2 0  9995,2 52668  53.2161 113.8125 0001723  60.2411 188.0881 15.08830606  1300,6917.909000000002,95.438,540.966,538.582,0.0
52668.0,STARLINK-4067,PAYLOAD,2022-09-12 22:00:00,15.08858628,0.0001857,53.2161,112.3178,53.7134,206.2165,-0.0016053,-0.00025759,0.0,0 STARLINK-4067,1 52668U 22053N   22255.91667824 -.00025759  00000-0 -16053-2 0  9995,2 52668  53.2161 112.3178 0001857  53.7134 206.2165 15.08858628 18747,6917.823,95.436,540.9730000000002,538.404,0.0
